{"type": "FeatureCollection", "features": [ {"type": "Feature", "properties": {"norad_id": 34571, "name": "COSMOS 2251 DEB", "group": "cosmos-2251-debris", "lat": -23.511984120534933, "lon": 158.65144368183292, "alt_km": 767.9968837804854, "timestamp": "2025-12-21T14:40:48.313381+00:00", "meta": {"OBJECT_NAME": "COSMOS 2251 DEB", "OBJECT_ID": "1993-036VH", "EPOCH": "2025-12-20T22:13:24.677184", "MEAN_MOTION": 14.48931926, "ECCENTRICITY": 0.0065366, "INCLINATION": 74.037, "RA_OF_ASC_NODE": 167.0899, "ARG_OF_PERICENTER": 200.1741, "MEAN_ANOMALY": 159.6835, "EPHEMERIS_TYPE": 0, "CLASSIFICATION_TYPE": "U", "NORAD_CAT_ID": 34571, "ELEMENT_SET_NO": 999, "REV_AT_EPOCH": 87412, "BSTAR": 0.0016387, "MEAN_MOTION_DOT": 6.353e-05, "MEAN_MOTION_DDOT": 0}, "tle": {"line1": "1 34571U 93036VH  25354.92598006  .00006353  00000+0  16387-2 0  9992", "line2": "2 34571  74.0370 167.0899 0065366 200.1741 159.6835 14.48931926874120"}}, "geometry": {"type": "Point", "coordinates": [158.65144368183292, -23.511984120534933]}}, {"type": "Feature", "properties": {"norad_id": 34572, "name": "COSMOS 2251 DEB", "group": "cosmos-2251-debris", "lat": -53.960614754240964, "lon": -57.974499251356626, "alt_km": 713.7501712005924, "timestamp": "2025-12-21T14:40:48.313391+00:00", "meta": {"OBJECT_NAME": "COSMOS 2251 DEB", "OBJECT_ID": "1993-036VJ", "EPOCH": "2025-12-19T08:52:33.083040", "MEAN_MOTION": 14.50137544, "ECCENTRICITY": 0.0061983, "INCLINATION": 74.0111, "RA_OF_ASC_NODE": 103.0332, "ARG_OF_PERICENTER": 175.7717, "MEAN_ANOMALY": 241.8877, "EPHEMERIS_TYPE": 0, "CLASSIFICATION_TYPE": "U", "NORAD_CAT_ID": 34572, "ELEMENT_SET_NO": 999, "REV_AT_EPOCH": 87474, "BSTAR": 0.0016719, "MEAN_MOTION_DOT": 6.633e-05, "MEAN_MOTION_DDOT": 0}, "tle": {"line1": "1 34572U 93036VJ  25353.36982735  .00006633  00000+0  16719-2 0  9996", "line2": "2 34572  74.0111 103.0332 0061983 175.7717 241.8877 14.50137544874742"}}, "geometry": {"type": "Point", "coordinates": [-57.974499251356626, -53.960614754240964]}}, {"type": "Feature", "properties": {"norad_id": 34574, "name": "COSMOS 2251 DEB", "group": "cosmos-2251-debris", "lat": 56.11860270558202, "lon": 51.12239825072987, "alt_km": 607.6452929029465, "timestamp": "2025-12-21T14:40:48.313401+00:00", "meta": {"OBJECT_NAME": "COSMOS 2251 DEB", "OBJECT_ID": "1993-036VL", "EPOCH": "2025-12-21T01:28:19.433856", "MEAN_MOTION": 14.70684173, "ECCENTRICITY": 0.00671343, "INCLINATION": 74.0681, "RA_OF_ASC_NODE": 27.0127, "ARG_OF_PERICENTER": 45.3067, "MEAN_ANOMALY": 341.7255, "EPHEMERIS_TYPE": 0, "CLASSIFICATION_TYPE": "U", "NORAD_CAT_ID": 34574, "ELEMENT_SET_NO": 999, "REV_AT_EPOCH": 88901, "BSTAR": 0.00057735458, "MEAN_MOTION_DOT": 3.61e-05, "MEAN_MOTION_DDOT": 0}, "tle": {"line1": "1 34574U 93036VL  25355.06133604  .00003610  00000+0  57735-3 0  9996", "line2": "2 34574  74.0681  27.0127 0067134  45.3067 341.7255 14.70684173889010"}}, "geometry": {"type": "Point", "coordinates": [51.12239825072987, 56.11860270558202]}}, {"type": "Feature", "properties": {"norad_id": 34576, "name": "COSMOS 2251 DEB", "group": "cosmos-2251-debris", "lat": -73.06892742510387, "lon": 11.516438567322165, "alt_km": 708.9683664145878, "timestamp": "2025-12-21T14:40:48.313411+00:00", "meta": {"OBJECT_NAME": "COSMOS 2251 DEB", "OBJECT_ID": "1993-036VN", "EPOCH": "2025-12-19T15:21:26.249760", "MEAN_MOTION": 14.55469677, "ECCENTRICITY": 0.0008223, "INCLINATION": 74.0343, "RA_OF_ASC_NODE": 125.1243, "ARG_OF_PERICENTER": 262.3221, "MEAN_ANOMALY": 114.6335, "EPHEMERIS_TYPE": 0, "CLASSIFICATION_TYPE": "U", "NORAD_CAT_ID": 34576, "ELEMENT_SET_NO": 999, "REV_AT_EPOCH": 88567, "BSTAR": 0.00058339, "MEAN_MOTION_DOT": 2.511e-05, "MEAN_MOTION_DDOT": 0}, "tle": {"line1": "1 34576U 93036VN  25353.63988715  .00002511  00000+0  58339-3 0  9990", "line2": "2 34576  74.0343 125.1243 0008223 262.3221 114.6335 14.55469677885670"}}, "geometry": {"type": "Point", "coordinates": [11.516438567322165, -73.06892742510387]}}, {"type": "Feature", "properties": {"norad_id": 34579, "name": "COSMOS 2251 DEB", "group": "cosmos-2251-debris", "lat": 20.326089020913713, "lon": 21.295485889203917, "alt_km": 749.1196533109724, "timestamp": "2025-12-21T14:40:48.313421+00:00", "meta": {"OBJECT_NAME": "COSMOS 2251 DEB", "OBJECT_ID": "1993-036VR", "EPOCH": "2025-12-21T01:21:37.646208", "MEAN_MOTION": 14.45328847, "ECCENTRICITY": 0.00275187, "INCLINATION": 74.0516, "RA_OF_ASC_NODE": 208.409, "ARG_OF_PERICENTER": 275.8213, "MEAN_ANOMALY": 236.6643, "EPHEMERIS_TYPE": 0, "CLASSIFICATION_TYPE": "U", "NORAD_CAT_ID": 34579, "ELEMENT_SET_NO": 999, "REV_AT_EPOCH": 88294, "BSTAR": 0.00026156545, "MEAN_MOTION_DOT": 8.96e-06, "MEAN_MOTION_DDOT": 0}, "tle": {"line1": "1 34579U 93036VR  25355.05668572  .00000896  00000+0  26157-3 0  9994", "line2": "2 34579  74.0516 208.4090 0027518 275.8213 236.6643 14.45328847882944"}}, "geometry": {"type": "Point", "coordinates": [21.295485889203917, 20.326089020913713]}}, {"type": "Feature", "properties": {"norad_id": 34582, "name": "COSMOS 2251 DEB", "group": "cosmos-2251-debris", "lat": 32.95515916199301, "lon": -93.41564484874243, "alt_km": 715.3287259678891, "timestamp": "2025-12-21T14:40:48.313431+00:00", "meta": {"OBJECT_NAME": "COSMOS 2251 DEB", "OBJECT_ID": "1993-036VU", "EPOCH": "2025-12-21T01:12:53.475552", "MEAN_MOTION": 14.43364188, "ECCENTRICITY": 0.00483118, "INCLINATION": 74.02, "RA_OF_ASC_NODE": 256.9212, "ARG_OF_PERICENTER": 5.227, "MEAN_ANOMALY": 354.938, "EPHEMERIS_TYPE": 0, "CLASSIFICATION_TYPE": "U", "NORAD_CAT_ID": 34582, "ELEMENT_SET_NO": 999, "REV_AT_EPOCH": 88067, "BSTAR": 0.0005121885, "MEAN_MOTION_DOT": 1.726e-05, "MEAN_MOTION_DDOT": 0}, "tle": {"line1": "1 34582U 93036VU  25355.05061893  .00001726  00000+0  51219-3 0  9991", "line2": "2 34582  74.0200 256.9212 0048311   5.2270 354.9380 14.43364188880670"}}, "geometry": {"type": "Point", "coordinates": [-93.41564484874243, 32.95515916199301]}}, {"type": "Feature", "properties": {"norad_id": 34588, "name": "COSMOS 2251 DEB", "group": "cosmos-2251-debris", "lat": 45.01344181809494, "lon": -91.54990816871062, "alt_km": 750.8127415115941, "timestamp": "2025-12-21T14:40:48.313441+00:00", "meta": {"OBJECT_NAME": "COSMOS 2251 DEB", "OBJECT_ID": "1993-036WA", "EPOCH": "2025-12-21T03:30:26.642880", "MEAN_MOTION": 14.42044077, "ECCENTRICITY": 0.00192864, "INCLINATION": 74.0429, "RA_OF_ASC_NODE": 252.6785, "ARG_OF_PERICENTER": 304.5185, "MEAN_ANOMALY": 206.9531, "EPHEMERIS_TYPE": 0, "CLASSIFICATION_TYPE": "U", "NORAD_CAT_ID": 34588, "ELEMENT_SET_NO": 999, "REV_AT_EPOCH": 88071, "BSTAR": 0.00029360727, "MEAN_MOTION_DOT": 9.4e-06, "MEAN_MOTION_DDOT": 0}, "tle": {"line1": "1 34588U 93036WA  25355.14614170  .00000940  00000+0  29361-3 0  9999", "line2": "2 34588  74.0429 252.6785 0019286 304.5185 206.9531 14.42044077880716"}}, "geometry": {"type": "Point", "coordinates": [-91.54990816871062, 45.01344181809494]}}, {"type": "Feature", "properties": {"norad_id": 34589, "name": "COSMOS 2251 DEB", "group": "cosmos-2251-debris", "lat": -71.9505610588403, "lon": -76.85669389326992, "alt_km": 915.3539900820806, "timestamp": "2025-12-21T14:40:48.313451+00:00", "meta": {"OBJECT_NAME": "COSMOS 2251 DEB", "OBJECT_ID": "1993-036WB", "EPOCH": "2025-12-21T05:01:09.143904", "MEAN_MOTION": 13.86061399, "ECCENTRICITY": 0.02522858, "INCLINATION": 73.9251, "RA_OF_ASC_NODE": 41.6, "ARG_OF_PERICENTER": 343.2461, "MEAN_ANOMALY": 73.4589, "EPHEMERIS_TYPE": 0, "CLASSIFICATION_TYPE": "U", "NORAD_CAT_ID": 34589, "ELEMENT_SET_NO": 999, "REV_AT_EPOCH": 84829, "BSTAR": 0.00030189158, "MEAN_MOTION_DOT": 4.21e-06, "MEAN_MOTION_DDOT": 0}, "tle": {"line1": "1 34589U 93036WB  25355.20913361  .00000421  00000+0  30189-3 0  9995", "line2": "2 34589  73.9251  41.6000 0252285 343.2461  73.4589 13.86061399848299"}}, "geometry": {"type": "Point", "coordinates": [-76.85669389326992, -71.9505610588403]}}, {"type": "Feature", "properties": {"norad_id": 34590, "name": "COSMOS 2251 DEB", "group": "cosmos-2251-debris", "lat": -69.49328990108489, "lon": -104.13302574863336, "alt_km": 758.3834352333997, "timestamp": "2025-12-21T14:40:48.313461+00:00", "meta": {"OBJECT_NAME": "COSMOS 2251 DEB", "OBJECT_ID": "1993-036WC", "EPOCH": "2025-12-21T03:34:33.744288", "MEAN_MOTION": 14.5483465, "ECCENTRICITY": 0.00680315, "INCLINATION": 74.0443, "RA_OF_ASC_NODE": 306.6424, "ARG_OF_PERICENTER": 73.7684, "MEAN_ANOMALY": 307.5052, "EPHEMERIS_TYPE": 0, "CLASSIFICATION_TYPE": "U", "NORAD_CAT_ID": 34590, "ELEMENT_SET_NO": 999, "REV_AT_EPOCH": 89243, "BSTAR": 9.6859802e-05, "MEAN_MOTION_DOT": 3.99e-06, "MEAN_MOTION_DDOT": 0}, "tle": {"line1": "1 34590U 93036WC  25355.14900167  .00000399  00000+0  96860-4 0  9993", "line2": "2 34590  74.0443 306.6424 0068031  73.7684 307.5052 14.54834650892431"}}, "geometry": {"type": "Point", "coordinates": [-104.13302574863336, -69.49328990108489]}}, {"type": "Feature", "properties": {"norad_id": 34609, "name": "COSMOS 2251 DEB", "group": "cosmos-2251-debris", "lat": 71.32099846340934, "lon": 150.2389158206972, "alt_km": 881.3739064304236, "timestamp": "2025-12-21T14:40:48.313471+00:00", "meta": {"OBJECT_NAME": "COSMOS 2251 DEB", "OBJECT_ID": "1993-036WE", "EPOCH": "2025-12-20T13:02:49.886880", "MEAN_MOTION": 14.21817588, "ECCENTRICITY": 0.0145584, "INCLINATION": 73.7329, "RA_OF_ASC_NODE": 92.459, "ARG_OF_PERICENTER": 310.7374, "MEAN_ANOMALY": 64.0631, "EPHEMERIS_TYPE": 0, "CLASSIFICATION_TYPE": "U", "NORAD_CAT_ID": 34609, "ELEMENT_SET_NO": 999, "REV_AT_EPOCH": 86743, "BSTAR": 0.00051907, "MEAN_MOTION_DOT": 1.244e-05, "MEAN_MOTION_DDOT": 0}, "tle": {"line1": "1 34609U 93036WE  25354.54363295  .00001244  00000+0  51907-3 0  9994", "line2": "2 34609  73.7329  92.4590 0145584 310.7374  64.0631 14.21817588867439"}}, "geometry": {"type": "Point", "coordinates": [150.2389158206972, 71.32099846340934]}}]}